{
  "type": "FeatureCollection",
  "features": [
    {
      "type": "Feature",
      "properties": {
        "norad_id": 66842,
        "name": "STARLINK-35769",
        "group": "last-30-days",
        "lat": 65.70065019649441,
        "lon": -68.60925054691239,
        "alt_km": 403.94089283087214,
        "timestamp": "2025-12-24T20:42:19.746465+00:00",
        "meta_object_name": "STARLINK-35769",
        "meta_object_id": "2025-280X",
        "meta_epoch": "2025-12-24T04:47:47.342400",
        "meta_mean_motion": 15.52543801,
        "meta_eccentricity": 0.0003013,
        "meta_inclination": 70.0007,
        "meta_ra_of_asc_node": 166.9783,
        "meta_arg_of_pericenter": 281.1483,
        "meta_mean_anomaly": 78.9365,
        "meta_ephemeris_type": 0,
        "meta_classification_type": "U",
        "meta_norad_cat_id": 66842,
        "meta_element_set_no": 999,
        "meta_rev_at_epoch": 471,
        "meta_bstar": 0.0016376341,
        "meta_mean_motion_dot": 0.00101971,
        "meta_mean_motion_ddot": 0,
        "tle_line1": "1 66842U 25280X   25358.19985350  .00101971  00000+0  16376-2 0  9999",
        "tle_line2": "2 66842  70.0007 166.9783 0003013 281.1483  78.9365 15.52543801  4710"
      },
      "geometry": {
        "type": "Point",
        "coordinates": [
          -68.60925054691239,
          65.70065019649441
        ]
      }
    },
    {
      "type": "Feature",
      "properties": {
        "norad_id": 66843,
        "name": "STARLINK-35997",
        "group": "last-30-days",
        "lat": 63.44527075189638,
        "lon": -61.625205944267414,
        "alt_km": 404.4975560712719,
        "timestamp": "2025-12-24T20:42:19.746479+00:00",
        "meta_object_name": "STARLINK-35997",
        "meta_object_id": "2025-280Y",
        "meta_epoch": "2025-12-24T06:19:34.778208",
        "meta_mean_motion": 15.52546508,
        "meta_eccentricity": 0.00033947,
        "meta_inclination": 70.0008,
        "meta_ra_of_asc_node": 166.7977,
        "meta_arg_of_pericenter": 272.0861,
        "meta_mean_anomaly": 87.9937,
        "meta_ephemeris_type": 0,
        "meta_classification_type": "U",
        "meta_norad_cat_id": 66843,
        "meta_element_set_no": 999,
        "meta_rev_at_epoch": 472,
        "meta_bstar": 0.00097524597,
        "meta_mean_motion_dot": 0.00060348,
        "meta_mean_motion_ddot": 0,
        "tle_line1": "1 66843U 25280Y   25358.26359697  .00060348  00000+0  97525-3 0  9995",
        "tle_line2": "2 66843  70.0008 166.7977 0003394 272.0861  87.9937 15.52546508  4729"
      },
      "geometry": {
        "type": "Point",
        "coordinates": [
          -61.625205944267414,
          63.44527075189638
        ]
      }
    },
    {
      "type": "Feature",
      "properties": {
        "norad_id": 66844,
        "name": "STARLINK-36073",
        "group": "last-30-days",
        "lat": 64.57379593813032,
        "lon": -64.84756393992132,
        "alt_km": 404.194754615035,
        "timestamp": "2025-12-24T20:42:19.746491+00:00",
        "meta_object_name": "STARLINK-36073",
        "meta_object_id": "2025-280Z",
        "meta_epoch": "2025-12-24T04:47:17.733984",
        "meta_mean_motion": 15.52556043,
        "meta_eccentricity": 0.00033079,
        "meta_inclination": 70.0007,
        "meta_ra_of_asc_node": 166.9766,
        "meta_arg_of_pericenter": 279.0621,
        "meta_mean_anomaly": 81.0192,
        "meta_ephemeris_type": 0,
        "meta_classification_type": "U",
        "meta_norad_cat_id": 66844,
        "meta_element_set_no": 999,
        "meta_rev_at_epoch": 468,
        "meta_bstar": 0.0016479221,
        "meta_mean_motion_dot": 0.0010267,
        "meta_mean_motion_ddot": 0,
        "tle_line1": "1 66844U 25280Z   25358.19951081  .00102670  00000+0  16479-2 0  9996",
        "tle_line2": "2 66844  70.0007 166.9766 0003307 279.0621  81.0192 15.52556043  4680"
      },
      "geometry": {
        "type": "Point",
        "coordinates": [
          -64.84756393992132,
          64.57379593813032
        ]
      }
    },
    {
      "type": "Feature",
      "properties": {
        "norad_id": 66845,
        "name": "STARLINK-36068",
        "group": "last-30-days",
        "lat": 59.41832834933881,
        "lon": -52.89575324130216,
        "alt_km": 404.84753894053756,
        "timestamp": "2025-12-24T20:42:19.746501+00:00",
        "meta_object_name": "STARLINK-36068",
        "meta_object_id": "2025-280AA",
        "meta_epoch": "2025-12-24T01:39:45.478368",
        "meta_mean_motion": 15.52545504,
        "meta_eccentricity": 0.00033745,
        "meta_inclination": 70.0008,
        "meta_ra_of_asc_node": 167.3235,
        "meta_arg_of_pericenter": 271.9294,
        "meta_mean_anomaly": 88.1506,
        "meta_ephemeris_type": 0,
        "meta_classification_type": "U",
        "meta_norad_cat_id": 66845,
        "meta_element_set_no": 999,
        "meta_rev_at_epoch": 469,
        "meta_bstar": 0.00072318066,
        "meta_mean_motion_dot": 0.00044616,
        "meta_mean_motion_ddot": 0,
        "tle_line1": "1 66845U 25280AA  25358.06927637  .00044616  00000+0  72318-3 0  9993",
        "tle_line2": "2 66845  70.0008 167.3235 0003374 271.9294  88.1506 15.52545504  4697"
      },
      "geometry": {
        "type": "Point",
        "coordinates": [
          -52.89575324130216,
          59.41832834933881
        ]
      }
    },
    {
      "type": "Feature",
      "properties": {
        "norad_id": 66846,
        "name": "STARLINK-36055",
        "group": "last-30-days",
        "lat": 62.12047041890497,
        "lon": -58.35460836177508,
        "alt_km": 404.4735804652719,
        "timestamp": "2025-12-24T20:42:19.746511+00:00",
        "meta_object_name": "STARLINK-36055",
        "meta_object_id": "2025-280AB",
        "meta_epoch": "2025-12-24T01:40:44.785920",
        "meta_mean_motion": 15.52546147,
        "meta_eccentricity": 0.00033,
        "meta_inclination": 70.0007,
        "meta_ra_of_asc_node": 167.3261,
        "meta_arg_of_pericenter": 272.3415,
        "meta_mean_anomaly": 87.7394,
        "meta_ephemeris_type": 0,
        "meta_classification_type": "U",
        "meta_norad_cat_id": 66846,
        "meta_element_set_no": 999,
        "meta_rev_at_epoch": 469,
        "meta_bstar": 0.0010222712,
        "meta_mean_motion_dot": 0.00063288,
        "meta_mean_motion_ddot": 0,
        "tle_line1": "1 66846U 25280AB  25358.06996280  .00063288  00000+0  10223-2 0  9996",
        "tle_line2": "2 66846  70.0007 167.3261 0003300 272.3415  87.7394 15.52546147  4699"
      },
      "geometry": {
        "type": "Point",
        "coordinates": [
          -58.35460836177508,
          62.12047041890497
        ]
      }
    },
    {
      "type": "Feature",
      "properties": {
        "norad_id": 66847,
        "name": "STARLINK-36061",
        "group": "last-30-days",
        "lat": 60.74502653298453,
        "lon": -55.405137624450234,
        "alt_km": 404.3807721044368,
        "timestamp": "2025-12-24T20:42:19.746521+00:00",
        "meta_object_name": "STARLINK-36061",
        "meta_object_id": "2025-280AC",
        "meta_epoch": "2025-12-24T04:45:48.888864",
        "meta_mean_motion": 15.52555832,
        "meta_eccentricity": 0.00031962,
        "meta_inclination": 70.0008,
        "meta_ra_of_asc_node": 166.972,
        "meta_arg_of_pericenter": 275.0079,
        "meta_mean_anomaly": 85.0743,
        "meta_ephemeris_type": 0,
        "meta_classification_type": "U",
        "meta_norad_cat_id": 66847,
        "meta_element_set_no": 999,
        "meta_rev_at_epoch": 471,
        "meta_bstar": 0.0019161513,
        "meta_mean_motion_dot": 0.00119663,
        "meta_mean_motion_ddot": 0,
        "tle_line1": "1 66847U 25280AC  25358.19848251  .00119663  00000+0  19162-2 0  9995",
        "tle_line2": "2 66847  70.0008 166.9720 0003196 275.0079  85.0743 15.52555832  4718"
      },
      "geometry": {
        "type": "Point",
        "coordinates": [
          -55.405137624450234,
          60.74502653298453
        ]
      }
    },
    {
      "type": "Feature",
      "properties": {
        "norad_id": 66848,
        "name": "STARLINK-36091",
        "group": "last-30-days",
        "lat": -35.906843779918105,
        "lon": -80.21801024653584,
        "alt_km": 401.7413476584725,
        "timestamp": "2025-12-24T20:42:19.746531+00:00",
        "meta_object_name": "STARLINK-36091",
        "meta_object_id": "2025-281A",
        "meta_epoch": "2025-12-24T06:00:02.000160",
        "meta_mean_motion": 15.58608664,
        "meta_eccentricity": 0.00012447,
        "meta_inclination": 42.9996,
        "meta_ra_of_asc_node": 52.4131,
        "meta_arg_of_pericenter": 279.0332,
        "meta_mean_anomaly": 121.2658,
        "meta_ephemeris_type": 0,
        "meta_classification_type": "U",
        "meta_norad_cat_id": 66848,
        "meta_element_set_no": 999,
        "meta_rev_at_epoch": 323,
        "meta_bstar": -0.029310092,
        "meta_mean_motion_dot": -0.02060972,
        "meta_mean_motion_ddot": 0,
        "tle_line1": "1 66848U 25281A   25358.25002315 -.02060972  00000+0 -29310-1 0  9994",
        "tle_line2": "2 66848  42.9996  52.4131 0001244 279.0332 121.2658 15.58608664  3238"
      },
      "geometry": {
        "type": "Point",
        "coordinates": [
          -80.21801024653584,
          -35.906843779918105
        ]
      }
    }
  ]
}